HULIANWANG DIGUI-60     
1 65166U 25174C   26196.15895113  .00000074  00000+0  13739-3 0  9996
2 65166  86.4939 242.5558 0001836 102.2866 257.8474 13.24407001 44499
HULIANWANG DIGUI-61     
1 65167U 25174D   26196.16652475  .00000060  00000+0  10454-3 0  9996
2 65167  86.4948 242.5866 0001663 100.2764 259.8558 13.24407614 44490
HULIANWANG DIGUI-62     
1 65168U 25174E   26196.17396218  .00000044  00000+0  68620-4 0  9999
2 65168  86.4889 242.3991 0001740 104.7394 255.3933 13.24409189 44493
HULIANWANG DIGUI-63     
1 65169U 25174F   26196.18144212  .00000036  00000+0  49025-4 0  9995
2 65169  86.4942 242.5728 0001630 104.3581 255.7734 13.24403500 44490
HULIANWANG DIGUI-64     
1 65170U 25174G   26196.18915881  .00000033  00000+0  41800-4 0  9995
2 65170  86.4901 242.4434 0001799 104.0802 256.0532 13.24407470 44499
HULIANWANG DIGUI-65     
1 65171U 25174H   26196.20421735  .00000033  00000+0  42569-4 0  9992
2 65171  86.4864 242.3313 0001705  99.2399 260.8927 13.24407440 44494
HULIANWANG DIGUI-66     
1 65172U 25174J   26196.19670488  .00000031  00000+0  38037-4 0  9995
2 65172  86.4899 242.4447 0001829 102.4254 257.7085 13.24407130 44492
HULIANWANG DIGUI-67     
1 65173U 25174K   26196.13623345  .00000044  00000+0  69112-4 0  9992
2 65173  86.4910 242.5135 0001808 100.6411 259.4926 13.24408592 44456
HULIANWANG DIGUI-68     
1 65228U 25178A   26196.15878003  .00000007  00000+0 -17685-4 0  9990
2 65228  86.4987   4.0804 0002004  91.6892 268.4472 13.24411255 44014
HULIANWANG DIGUI-69     
1 65229U 25178B   26196.15133713  .00000003  00000+0 -26034-4 0  9997
2 65229  86.5007   4.1433 0001915  92.0162 268.1192 13.24412680 44012
HULIANWANG DIGUI-70     
1 65230U 25178C   26196.14377506 -.00000004  00000+0 -44087-4 0  9998
2 65230  86.4946   3.9368 0002014  89.9949 270.1416 13.24411790 44011
HULIANWANG DIGUI-71     
1 65231U 25178D   26196.13623656  .00000000  00000+0 -33317-4 0  9997
2 65231  86.5005   4.1281 0001990  90.6190 269.5172 13.24411501 44016
HULIANWANG DIGUI-72     
1 65232U 25178E   26196.20423068  .00000019  00000+0  10220-4 0  9998
2 65232  86.4988   4.0418 0001996  90.9420 269.1943 13.24411001 44020
HULIANWANG DIGUI-73     
1 65305U 25187A   26196.17929755 -.00000094  00000+0  64668-4 0  9998
2 65305  50.0051 105.4877 0000120 312.8750  47.2112 13.29323515 43427
HULIANWANG DIGUI-74     
1 65306U 25187B   26196.16268110 -.00000104  00000+0  43849-4 0  9999
2 65306  50.0093 105.5091 0000134 302.6704  57.4155 13.29321588 43422
HULIANWANG DIGUI-75     
1 65307U 25187C   26196.14599181 -.00000110  00000+0  31017-4 0  9994
2 65307  50.0085 105.4027 0000125 313.1512  46.9350 13.29322787 43428
