{"fetched_at":"2026-07-15T17:47:13.894Z","source":"https://celestrak.org/NORAD/elements/gp.php?NAME=HULIANWANG&FORMAT=JSON","constellation":"guowang","records":[{"OBJECT_NAME":"HULIANWANG DIGUI-60","OBJECT_ID":"2025-174C","EPOCH":"2026-07-15T03:48:53.377632","CLASSIFICATION_TYPE":"U","MEAN_MOTION":13.24407001,"ECCENTRICITY":0.0001836,"INCLINATION":86.4939,"RA_OF_ASC_NODE":242.5558,"ARG_OF_PERICENTER":102.2866,"MEAN_ANOMALY":257.8474,"EPHEMERIS_TYPE":0,"NORAD_CAT_ID":65166,"ELEMENT_SET_NO":999,"REV_AT_EPOCH":4449,"BSTAR":0.00013739,"MEAN_MOTION_DOT":7.4e-7,"MEAN_MOTION_DDOT":0},{"OBJECT_NAME":"HULIANWANG DIGUI-61","OBJECT_ID":"2025-174D","EPOCH":"2026-07-15T03:59:47.738400","CLASSIFICATION_TYPE":"U","MEAN_MOTION":13.24407614,"ECCENTRICITY":0.0001663,"INCLINATION":86.4948,"RA_OF_ASC_NODE":242.5866,"ARG_OF_PERICENTER":100.2764,"MEAN_ANOMALY":259.8558,"EPHEMERIS_TYPE":0,"NORAD_CAT_ID":65167,"ELEMENT_SET_NO":999,"REV_AT_EPOCH":4449,"BSTAR":0.00010454,"MEAN_MOTION_DOT":6e-7,"MEAN_MOTION_DDOT":0},{"OBJECT_NAME":"HULIANWANG DIGUI-62","OBJECT_ID":"2025-174E","EPOCH":"2026-07-15T04:10:30.332352","CLASSIFICATION_TYPE":"U","MEAN_MOTION":13.24409189,"ECCENTRICITY":0.000174,"INCLINATION":86.4889,"RA_OF_ASC_NODE":242.3991,"ARG_OF_PERICENTER":104.7394,"MEAN_ANOMALY":255.3933,"EPHEMERIS_TYPE":0,"NORAD_CAT_ID":65168,"ELEMENT_SET_NO":999,"REV_AT_EPOCH":4449,"BSTAR":0.00006862,"MEAN_MOTION_DOT":4.4e-7,"MEAN_MOTION_DDOT":0},{"OBJECT_NAME":"HULIANWANG DIGUI-63","OBJECT_ID":"2025-174F","EPOCH":"2026-07-15T04:21:16.599168","CLASSIFICATION_TYPE":"U","MEAN_MOTION":13.244035,"ECCENTRICITY":0.000163,"INCLINATION":86.4942,"RA_OF_ASC_NODE":242.5728,"ARG_OF_PERICENTER":104.3581,"MEAN_ANOMALY":255.7734,"EPHEMERIS_TYPE":0,"NORAD_CAT_ID":65169,"ELEMENT_SET_NO":999,"REV_AT_EPOCH":4449,"BSTAR":0.000049025,"MEAN_MOTION_DOT":3.6e-7,"MEAN_MOTION_DDOT":0},{"OBJECT_NAME":"HULIANWANG DIGUI-64","OBJECT_ID":"2025-174G","EPOCH":"2026-07-15T04:32:23.321184","CLASSIFICATION_TYPE":"U","MEAN_MOTION":13.2440747,"ECCENTRICITY":0.0001799,"INCLINATION":86.4901,"RA_OF_ASC_NODE":242.4434,"ARG_OF_PERICENTER":104.0802,"MEAN_ANOMALY":256.0532,"EPHEMERIS_TYPE":0,"NORAD_CAT_ID":65170,"ELEMENT_SET_NO":999,"REV_AT_EPOCH":4449,"BSTAR":0.0000418,"MEAN_MOTION_DOT":3.3e-7,"MEAN_MOTION_DDOT":0},{"OBJECT_NAME":"HULIANWANG DIGUI-65","OBJECT_ID":"2025-174H","EPOCH":"2026-07-15T04:54:04.379040","CLASSIFICATION_TYPE":"U","MEAN_MOTION":13.2440744,"ECCENTRICITY":0.0001705,"INCLINATION":86.4864,"RA_OF_ASC_NODE":242.3313,"ARG_OF_PERICENTER":99.2399,"MEAN_ANOMALY":260.8927,"EPHEMERIS_TYPE":0,"NORAD_CAT_ID":65171,"ELEMENT_SET_NO":999,"REV_AT_EPOCH":4449,"BSTAR":0.000042569,"MEAN_MOTION_DOT":3.3e-7,"MEAN_MOTION_DDOT":0},{"OBJECT_NAME":"HULIANWANG DIGUI-66","OBJECT_ID":"2025-174J","EPOCH":"2026-07-15T04:43:15.301632","CLASSIFICATION_TYPE":"U","MEAN_MOTION":13.2440713,"ECCENTRICITY":0.0001829,"INCLINATION":86.4899,"RA_OF_ASC_NODE":242.4447,"ARG_OF_PERICENTER":102.4254,"MEAN_ANOMALY":257.7085,"EPHEMERIS_TYPE":0,"NORAD_CAT_ID":65172,"ELEMENT_SET_NO":999,"REV_AT_EPOCH":4449,"BSTAR":0.000038037,"MEAN_MOTION_DOT":3.1e-7,"MEAN_MOTION_DDOT":0},{"OBJECT_NAME":"HULIANWANG DIGUI-67","OBJECT_ID":"2025-174K","EPOCH":"2026-07-15T03:16:10.570080","CLASSIFICATION_TYPE":"U","MEAN_MOTION":13.24408592,"ECCENTRICITY":0.0001808,"INCLINATION":86.491,"RA_OF_ASC_NODE":242.5135,"ARG_OF_PERICENTER":100.6411,"MEAN_ANOMALY":259.4926,"EPHEMERIS_TYPE":0,"NORAD_CAT_ID":65173,"ELEMENT_SET_NO":999,"REV_AT_EPOCH":4445,"BSTAR":0.000069112,"MEAN_MOTION_DOT":4.4e-7,"MEAN_MOTION_DDOT":0},{"OBJECT_NAME":"HULIANWANG DIGUI-68","OBJECT_ID":"2025-178A","EPOCH":"2026-07-15T03:48:38.594592","CLASSIFICATION_TYPE":"U","MEAN_MOTION":13.24411255,"ECCENTRICITY":0.0002004,"INCLINATION":86.4987,"RA_OF_ASC_NODE":4.0804,"ARG_OF_PERICENTER":91.6892,"MEAN_ANOMALY":268.4472,"EPHEMERIS_TYPE":0,"NORAD_CAT_ID":65228,"ELEMENT_SET_NO":999,"REV_AT_EPOCH":4401,"BSTAR":-0.000017685,"MEAN_MOTION_DOT":7e-8,"MEAN_MOTION_DDOT":0},{"OBJECT_NAME":"HULIANWANG DIGUI-69","OBJECT_ID":"2025-178B","EPOCH":"2026-07-15T03:37:55.528032","CLASSIFICATION_TYPE":"U","MEAN_MOTION":13.2441268,"ECCENTRICITY":0.0001915,"INCLINATION":86.5007,"RA_OF_ASC_NODE":4.1433,"ARG_OF_PERICENTER":92.0162,"MEAN_ANOMALY":268.1192,"EPHEMERIS_TYPE":0,"NORAD_CAT_ID":65229,"ELEMENT_SET_NO":999,"REV_AT_EPOCH":4401,"BSTAR":-0.000026034,"MEAN_MOTION_DOT":3e-8,"MEAN_MOTION_DDOT":0},{"OBJECT_NAME":"HULIANWANG DIGUI-70","OBJECT_ID":"2025-178C","EPOCH":"2026-07-15T03:27:02.165184","CLASSIFICATION_TYPE":"U","MEAN_MOTION":13.2441179,"ECCENTRICITY":0.0002014,"INCLINATION":86.4946,"RA_OF_ASC_NODE":3.9368,"ARG_OF_PERICENTER":89.9949,"MEAN_ANOMALY":270.1416,"EPHEMERIS_TYPE":0,"NORAD_CAT_ID":65230,"ELEMENT_SET_NO":999,"REV_AT_EPOCH":4401,"BSTAR":-0.000044087,"MEAN_MOTION_DOT":-4e-8,"MEAN_MOTION_DDOT":0},{"OBJECT_NAME":"HULIANWANG DIGUI-71","OBJECT_ID":"2025-178D","EPOCH":"2026-07-15T03:16:10.838784","CLASSIFICATION_TYPE":"U","MEAN_MOTION":13.24411501,"ECCENTRICITY":0.000199,"INCLINATION":86.5005,"RA_OF_ASC_NODE":4.1281,"ARG_OF_PERICENTER":90.619,"MEAN_ANOMALY":269.5172,"EPHEMERIS_TYPE":0,"NORAD_CAT_ID":65231,"ELEMENT_SET_NO":999,"REV_AT_EPOCH":4401,"BSTAR":-0.000033317,"MEAN_MOTION_DOT":0,"MEAN_MOTION_DDOT":0},{"OBJECT_NAME":"HULIANWANG DIGUI-72","OBJECT_ID":"2025-178E","EPOCH":"2026-07-15T04:54:05.530752","CLASSIFICATION_TYPE":"U","MEAN_MOTION":13.24411001,"ECCENTRICITY":0.0001996,"INCLINATION":86.4988,"RA_OF_ASC_NODE":4.0418,"ARG_OF_PERICENTER":90.942,"MEAN_ANOMALY":269.1943,"EPHEMERIS_TYPE":0,"NORAD_CAT_ID":65232,"ELEMENT_SET_NO":999,"REV_AT_EPOCH":4402,"BSTAR":0.00001022,"MEAN_MOTION_DOT":1.9e-7,"MEAN_MOTION_DDOT":0},{"OBJECT_NAME":"HULIANWANG DIGUI-73","OBJECT_ID":"2025-187A","EPOCH":"2026-07-15T04:18:11.308320","CLASSIFICATION_TYPE":"U","MEAN_MOTION":13.29323515,"ECCENTRICITY":0.000012,"INCLINATION":50.0051,"RA_OF_ASC_NODE":105.4877,"ARG_OF_PERICENTER":312.875,"MEAN_ANOMALY":47.2112,"EPHEMERIS_TYPE":0,"NORAD_CAT_ID":65305,"ELEMENT_SET_NO":999,"REV_AT_EPOCH":4342,"BSTAR":0.000064668,"MEAN_MOTION_DOT":-9.4e-7,"MEAN_MOTION_DDOT":0},{"OBJECT_NAME":"HULIANWANG DIGUI-74","OBJECT_ID":"2025-187B","EPOCH":"2026-07-15T03:54:15.647040","CLASSIFICATION_TYPE":"U","MEAN_MOTION":13.29321588,"ECCENTRICITY":0.0000134,"INCLINATION":50.0093,"RA_OF_ASC_NODE":105.5091,"ARG_OF_PERICENTER":302.6704,"MEAN_ANOMALY":57.4155,"EPHEMERIS_TYPE":0,"NORAD_CAT_ID":65306,"ELEMENT_SET_NO":999,"REV_AT_EPOCH":4342,"BSTAR":0.000043849,"MEAN_MOTION_DOT":-0.00000104,"MEAN_MOTION_DDOT":0},{"OBJECT_NAME":"HULIANWANG DIGUI-75","OBJECT_ID":"2025-187C","EPOCH":"2026-07-15T03:30:13.692384","CLASSIFICATION_TYPE":"U","MEAN_MOTION":13.29322787,"ECCENTRICITY":0.0000125,"INCLINATION":50.0085,"RA_OF_ASC_NODE":105.4027,"ARG_OF_PERICENTER":313.1512,"MEAN_ANOMALY":46.935,"EPHEMERIS_TYPE":0,"NORAD_CAT_ID":65307,"ELEMENT_SET_NO":999,"REV_AT_EPOCH":4342,"BSTAR":0.000031017,"MEAN_MOTION_DOT":-0.0000011,"MEAN_MOTION_DDOT":0}]}
